[
  {
    "COMMENT": "GENERATED VIA SPACETRACK.ORG API",
    "ORIGINATOR": "18 SPCS",
    "NORAD_CAT_ID": "36508",
    "OBJECT_NAME": "CRYOSAT 2",
    "OBJECT_TYPE": "PAYLOAD",
    "CLASSIFICATION_TYPE": "U",
    "INTLDES": "10013A",
    "EPOCH": "2023-05-15 14:03:07",
    "EPOCH_MICROSECONDS": "105824",
    "MEAN_MOTION": "14.51901604",
    "ECCENTRICITY": "0.0003842",
    "INCLINATION": "92.0233",
    "RA_OF_ASC_NODE": "4.5344",
    "ARG_OF_PERICENTER": "162.3047",
    "MEAN_ANOMALY": "197.8295",
    "EPHEMERIS_TYPE": "0",
    "ELEMENT_SET_NO": "999",
    "REV_AT_EPOCH": "69436",
    "BSTAR": "0.000070921",
    "MEAN_MOTION_DOT": "0.00000289",
    "MEAN_MOTION_DDOT": "0",
    "FILE": "3908620",
    "TLE_LINE0": "0 CRYOSAT 2",
    "TLE_LINE1": "1 36508U 10013A   23135.58549891  .00000289  00000-0  70921-4 0  9992",
    "TLE_LINE2": "2 36508  92.0233   4.5344 0003842 162.3047 197.8295 14.51901604694363",
    "OBJECT_ID": "2010-013A",
    "OBJECT_NUMBER": "36508",
    "SEMIMAJOR_AXIS": "7097.581",
    "PERIOD": "99.180",
    "APOGEE": "722.173",
    "PERIGEE": "716.720",
    "DECAYED": "0"
  },
  {
    "COMMENT": "GENERATED VIA SPACETRACK.ORG API",
    "ORIGINATOR": "18 SPCS",
    "NORAD_CAT_ID": "36508",
    "OBJECT_NAME": "CRYOSAT 2",
    "OBJECT_TYPE": "PAYLOAD",
    "CLASSIFICATION_TYPE": "U",
    "INTLDES": "10013A",
    "EPOCH": "2023-05-15 14:03:07",
    "EPOCH_MICROSECONDS": "105824",
    "MEAN_MOTION": "14.51901604",
    "ECCENTRICITY": "0.0003842",
    "INCLINATION": "92.0233",
    "RA_OF_ASC_NODE": "4.5344",
    "ARG_OF_PERICENTER": "162.3047",
    "MEAN_ANOMALY": "197.8295",
    "EPHEMERIS_TYPE": "0",
    "ELEMENT_SET_NO": "999",
    "REV_AT_EPOCH": "69432",
    "BSTAR": "0.000070921",
    "MEAN_MOTION_DOT": "0.00000289",
    "MEAN_MOTION_DDOT": "0",
    "FILE": "3908681",
    "TLE_LINE0": "0 CRYOSAT 2",
    "TLE_LINE1": "1 36508U 10013A   23135.58549891  .00000289  00000-0  70921-4 0  9992",
    "TLE_LINE2": "2 36508  92.0233   4.5344 0003842 162.3047 197.8295 14.51901604694329",
    "OBJECT_ID": "2010-013A",
    "OBJECT_NUMBER": "36508",
    "SEMIMAJOR_AXIS": "7097.581",
    "PERIOD": "99.180",
    "APOGEE": "722.173",
    "PERIGEE": "716.720",
    "DECAYED": "0"
  },
  {
    "COMMENT": "GENERATED VIA SPACETRACK.ORG API",
    "ORIGINATOR": "18 SPCS",
    "NORAD_CAT_ID": "36508",
    "OBJECT_NAME": "CRYOSAT 2",
    "OBJECT_TYPE": "PAYLOAD",
    "CLASSIFICATION_TYPE": "U",
    "INTLDES": "10013A",
    "EPOCH": "2023-05-15 15:42:21",
    "EPOCH_MICROSECONDS": "802464",
    "MEAN_MOTION": "14.51901646",
    "ECCENTRICITY": "0.000385",
    "INCLINATION": "92.0233",
    "RA_OF_ASC_NODE": "4.5511",
    "ARG_OF_PERICENTER": "162.1189",
    "MEAN_ANOMALY": "198.0155",
    "EPHEMERIS_TYPE": "0",
    "ELEMENT_SET_NO": "999",
    "REV_AT_EPOCH": "69433",
    "BSTAR": "0.000070802",
    "MEAN_MOTION_DOT": "0.00000288",
    "MEAN_MOTION_DDOT": "0",
    "FILE": "3908892",
    "TLE_LINE0": "0 CRYOSAT 2",
    "TLE_LINE1": "1 36508U 10013A   23135.65441901  .00000288  00000-0  70802-4 0  9990",
    "TLE_LINE2": "2 36508  92.0233   4.5511 0003850 162.1189 198.0155 14.51901646694334",
    "OBJECT_ID": "2010-013A",
    "OBJECT_NUMBER": "36508",
    "SEMIMAJOR_AXIS": "7097.581",
    "PERIOD": "99.180",
    "APOGEE": "722.179",
    "PERIGEE": "716.714",
    "DECAYED": "0"
  },
  {
    "COMMENT": "GENERATED VIA SPACETRACK.ORG API",
    "ORIGINATOR": "18 SPCS",
    "NORAD_CAT_ID": "36508",
    "OBJECT_NAME": "CRYOSAT 2",
    "OBJECT_TYPE": "PAYLOAD",
    "CLASSIFICATION_TYPE": "U",
    "INTLDES": "10013A",
    "EPOCH": "2023-05-16 14:51:47",
    "EPOCH_MICROSECONDS": "542464",
    "MEAN_MOTION": "14.51902201",
    "ECCENTRICITY": "0.0003986",
    "INCLINATION": "92.0232",
    "RA_OF_ASC_NODE": "4.7841",
    "ARG_OF_PERICENTER": "159.4688",
    "MEAN_ANOMALY": "200.668",
    "EPHEMERIS_TYPE": "0",
    "ELEMENT_SET_NO": "999",
    "REV_AT_EPOCH": "69447",
    "BSTAR": "0.000069508",
    "MEAN_MOTION_DOT": "0.00000283",
    "MEAN_MOTION_DDOT": "0",
    "FILE": "3909472",
    "TLE_LINE0": "0 CRYOSAT 2",
    "TLE_LINE1": "1 36508U 10013A   23136.61930026  .00000283  00000-0  69508-4 0  9994",
    "TLE_LINE2": "2 36508  92.0232   4.7841 0003986 159.4688 200.6680 14.51902201694470",
    "OBJECT_ID": "2010-013A",
    "OBJECT_NUMBER": "36508",
    "SEMIMAJOR_AXIS": "7097.579",
    "PERIOD": "99.180",
    "APOGEE": "722.274",
    "PERIGEE": "716.615",
    "DECAYED": "0"
  },
  {
    "COMMENT": "GENERATED VIA SPACETRACK.ORG API",
    "ORIGINATOR": "18 SPCS",
    "NORAD_CAT_ID": "36508",
    "OBJECT_NAME": "CRYOSAT 2",
    "OBJECT_TYPE": "PAYLOAD",
    "CLASSIFICATION_TYPE": "U",
    "INTLDES": "10013A",
    "EPOCH": "2023-05-16 21:28:46",
    "EPOCH_MICROSECONDS": "322976",
    "MEAN_MOTION": "14.51902291",
    "ECCENTRICITY": "0.0004018",
    "INCLINATION": "92.0232",
    "RA_OF_ASC_NODE": "4.8506",
    "ARG_OF_PERICENTER": "158.719",
    "MEAN_ANOMALY": "201.4185",
    "EPHEMERIS_TYPE": "0",
    "ELEMENT_SET_NO": "999",
    "REV_AT_EPOCH": "69455",
    "BSTAR": "0.000066894",
    "MEAN_MOTION_DOT": "0.00000272",
    "MEAN_MOTION_DDOT": "0",
    "FILE": "3909716",
    "TLE_LINE0": "0 CRYOSAT 2",
    "TLE_LINE1": "1 36508U 10013A   23136.89498059  .00000272  00000-0  66894-4 0  9992",
    "TLE_LINE2": "2 36508  92.0232   4.8506 0004018 158.7190 201.4185 14.51902291694553",
    "OBJECT_ID": "2010-013A",
    "OBJECT_NUMBER": "36508",
    "SEMIMAJOR_AXIS": "7097.579",
    "PERIOD": "99.180",
    "APOGEE": "722.296",
    "PERIGEE": "716.592",
    "DECAYED": "0"
  },
  {
    "COMMENT": "GENERATED VIA SPACETRACK.ORG API",
    "ORIGINATOR": "18 SPCS",
    "NORAD_CAT_ID": "36508",
    "OBJECT_NAME": "CRYOSAT 2",
    "OBJECT_TYPE": "PAYLOAD",
    "CLASSIFICATION_TYPE": "U",
    "INTLDES": "10013A",
    "EPOCH": "2023-05-16 21:28:46",
    "EPOCH_MICROSECONDS": "322976",
    "MEAN_MOTION": "14.51902291",
    "ECCENTRICITY": "0.0004018",
    "INCLINATION": "92.0232",
    "RA_OF_ASC_NODE": "4.8506",
    "ARG_OF_PERICENTER": "158.719",
    "MEAN_ANOMALY": "201.4185",
    "EPHEMERIS_TYPE": "0",
    "ELEMENT_SET_NO": "999",
    "REV_AT_EPOCH": "69451",
    "BSTAR": "0.000066894",
    "MEAN_MOTION_DOT": "0.00000272",
    "MEAN_MOTION_DDOT": "0",
    "FILE": "3909742",
    "TLE_LINE0": "0 CRYOSAT 2",
    "TLE_LINE1": "1 36508U 10013A   23136.89498059  .00000272  00000-0  66894-4 0  9992",
    "TLE_LINE2": "2 36508  92.0232   4.8506 0004018 158.7190 201.4185 14.51902291694519",
    "OBJECT_ID": "2010-013A",
    "OBJECT_NUMBER": "36508",
    "SEMIMAJOR_AXIS": "7097.579",
    "PERIOD": "99.180",
    "APOGEE": "722.296",
    "PERIGEE": "716.592",
    "DECAYED": "0"
  },
  {
    "COMMENT": "GENERATED VIA SPACETRACK.ORG API",
    "ORIGINATOR": "18 SPCS",
    "NORAD_CAT_ID": "36508",
    "OBJECT_NAME": "CRYOSAT 2",
    "OBJECT_TYPE": "PAYLOAD",
    "CLASSIFICATION_TYPE": "U",
    "INTLDES": "10013A",
    "EPOCH": "2023-05-17 22:17:26",
    "EPOCH_MICROSECONDS": "712096",
    "MEAN_MOTION": "14.51902875",
    "ECCENTRICITY": "0.0004156",
    "INCLINATION": "92.0231",
    "RA_OF_ASC_NODE": "5.1002",
    "ARG_OF_PERICENTER": "156.0425",
    "MEAN_ANOMALY": "204.0977",
    "EPHEMERIS_TYPE": "0",
    "ELEMENT_SET_NO": "999",
    "REV_AT_EPOCH": "69466",
    "BSTAR": "0.000066925",
    "MEAN_MOTION_DOT": "0.00000273",
    "MEAN_MOTION_DDOT": "0",
    "FILE": "3910633",
    "TLE_LINE0": "0 CRYOSAT 2",
    "TLE_LINE1": "1 36508U 10013A   23137.92878139  .00000273  00000-0  66925-4 0  9994",
    "TLE_LINE2": "2 36508  92.0231   5.1002 0004156 156.0425 204.0977 14.51902875694660",
    "OBJECT_ID": "2010-013A",
    "OBJECT_NUMBER": "36508",
    "SEMIMAJOR_AXIS": "7097.577",
    "PERIOD": "99.180",
    "APOGEE": "722.392",
    "PERIGEE": "716.493",
    "DECAYED": "0"
  },
  {
    "COMMENT": "GENERATED VIA SPACETRACK.ORG API",
    "ORIGINATOR": "18 SPCS",
    "NORAD_CAT_ID": "36508",
    "OBJECT_NAME": "CRYOSAT 2",
    "OBJECT_TYPE": "PAYLOAD",
    "CLASSIFICATION_TYPE": "U",
    "INTLDES": "10013A",
    "EPOCH": "2023-05-18 01:35:56",
    "EPOCH_MICROSECONDS": "95008",
    "MEAN_MOTION": "14.5190296",
    "ECCENTRICITY": "0.0004174",
    "INCLINATION": "92.023",
    "RA_OF_ASC_NODE": "5.1335",
    "ARG_OF_PERICENTER": "155.7024",
    "MEAN_ANOMALY": "204.4381",
    "EPHEMERIS_TYPE": "0",
    "ELEMENT_SET_NO": "999",
    "REV_AT_EPOCH": "69472",
    "BSTAR": "0.0000664",
    "MEAN_MOTION_DOT": "0.0000027",
    "MEAN_MOTION_DDOT": "0",
    "FILE": "3910908",
    "TLE_LINE0": "0 CRYOSAT 2",
    "TLE_LINE1": "1 36508U 10013A   23138.06662147  .00000270  00000-0  66400-4 0  9995",
    "TLE_LINE2": "2 36508  92.0230   5.1335 0004174 155.7024 204.4381 14.51902960694724",
    "OBJECT_ID": "2010-013A",
    "OBJECT_NUMBER": "36508",
    "SEMIMAJOR_AXIS": "7097.577",
    "PERIOD": "99.180",
    "APOGEE": "722.405",
    "PERIGEE": "716.479",
    "DECAYED": "0"
  },
  {
    "COMMENT": "GENERATED VIA SPACETRACK.ORG API",
    "ORIGINATOR": "18 SPCS",
    "NORAD_CAT_ID": "36508",
    "OBJECT_NAME": "CRYOSAT 2",
    "OBJECT_TYPE": "PAYLOAD",
    "CLASSIFICATION_TYPE": "U",
    "INTLDES": "10013A",
    "EPOCH": "2023-05-18 14:49:53",
    "EPOCH_MICROSECONDS": "618880",
    "MEAN_MOTION": "14.51903219",
    "ECCENTRICITY": "0.000424",
    "INCLINATION": "92.0229",
    "RA_OF_ASC_NODE": "5.2666",
    "ARG_OF_PERICENTER": "154.3034",
    "MEAN_ANOMALY": "205.8384",
    "EPHEMERIS_TYPE": "0",
    "ELEMENT_SET_NO": "999",
    "REV_AT_EPOCH": "69476",
    "BSTAR": "0.00006237",
    "MEAN_MOTION_DOT": "0.00000254",
    "MEAN_MOTION_DDOT": "0",
    "FILE": "3911221",
    "TLE_LINE0": "0 CRYOSAT 2",
    "TLE_LINE1": "1 36508U 10013A   23138.61798170  .00000254  00000-0  62370-4 0  9996",
    "TLE_LINE2": "2 36508  92.0229   5.2666 0004240 154.3034 205.8384 14.51903219694760",
    "OBJECT_ID": "2010-013A",
    "OBJECT_NUMBER": "36508",
    "SEMIMAJOR_AXIS": "7097.576",
    "PERIOD": "99.180",
    "APOGEE": "722.451",
    "PERIGEE": "716.432",
    "DECAYED": "0"
  }
]